[{"OBJECT_NAME":"STARLINK-3056","OBJECT_ID":"2021-082AF","EPOCH":"2026-03-09T21:20:27.846816","MEAN_MOTION":14.98317734,"ECCENTRICITY":0.00029466,"INCLINATION":69.998,"RA_OF_ASC_NODE":293.9534,"ARG_OF_PERICENTER":270.2418,"MEAN_ANOMALY":89.8404,"EPHEMERIS_TYPE":0,"CLASSIFICATION_TYPE":"U","NORAD_CAT_ID":49159,"ELEMENT_SET_NO":999,"REV_AT_EPOCH":24710,"BSTAR":9.1259836e-5,"MEAN_MOTION_DOT":9.96e-6,"MEAN_MOTION_DDOT":0},{"OBJECT_NAME":"ION SCV-022","OBJECT_ID":"2025-276S","EPOCH":"2026-03-09T17:53:05.489952","MEAN_MOTION":14.97347265,"ECCENTRICITY":0.00045393,"INCLINATION":97.5376,"RA_OF_ASC_NODE":142.978,"ARG_OF_PERICENTER":154.7099,"MEAN_ANOMALY":205.4346,"EPHEMERIS_TYPE":0,"CLASSIFICATION_TYPE":"U","NORAD_CAT_ID":66682,"ELEMENT_SET_NO":999,"REV_AT_EPOCH":1519,"BSTAR":0.00017276803,"MEAN_MOTION_DOT":1.95e-5,"MEAN_MOTION_DDOT":0}]
